NORAD_CAT_ID,OBJECT_NAME,OBJECT_TYPE,EPOCH,MEAN_MOTION,ECCENTRICITY,INCLINATION,RA_OF_ASC_NODE,ARG_OF_PERICENTER,MEAN_ANOMALY,BSTAR,MEAN_MOTION_DOT,MEAN_MOTION_DDOT,TLE_LINE0,TLE_LINE1,TLE_LINE2,SEMIMAJOR_AXIS,PERIOD,APOGEE,PERIGEE,DECAYED
53746.0,STARLINK-4589,PAYLOAD,2023-09-21 11:50:18,15.08856286,0.0001824,53.2175,345.31,52.96,307.1558,0.0014491,0.0002286,0.0,0 STARLINK-4589,1 53746U 22107AY  23264.49326662  .00022860  00000-0  14491-2 0  9991,2 53746  53.2175 345.3100 0001824  52.9600 307.1558 15.08856286 58699,6917.831,95.437,540.957,538.434,0.0
53746.0,STARLINK-4589,PAYLOAD,2023-09-21 16:36:27,15.08869363,0.0001886,53.2176,344.4178,51.5943,308.5218,0.0016518,0.0002612,0.0,0 STARLINK-4589,1 53746U 22107AY  23264.69198326  .00026120  00000-0  16518-2 0  9992,2 53746  53.2176 344.4178 0001886  51.5943 308.5218 15.08869363 58720,6917.791,95.436,540.96,538.351,0.0
53746.0,STARLINK-4589,PAYLOAD,2023-09-21 22:57:59,15.08852112,0.0001122,53.2184,343.2237,93.51,266.602,0.00060083,9.29e-05,0.0,0 STARLINK-4589,1 53746U 22107AY  23264.95694162  .00009290  00000-0  60083-3 0  9996,2 53746  53.2184 343.2237 0001122  93.5100 266.6020 15.08852112 57982,6917.843,95.437,540.485,538.932,0.0
53746.0,STARLINK-4589,PAYLOAD,2023-09-22 11:41:04,15.08852595,0.0001517,53.2176,340.8486,74.1498,285.9661,0.0012265,0.00019292,0.0,0 STARLINK-4589,1 53746U 22107AY  23265.48686214  .00019292  00000-0  12265-2 0  9995,2 53746  53.2176 340.8486 0001517  74.1498 285.9661 15.08852595 58841,6917.842,95.437,540.756,538.657,0.0
53746.0,STARLINK-4589,PAYLOAD,2023-09-22 13:16:27,15.08861057,0.0001498,53.2176,340.5504,74.666,285.4498,0.00084807,0.00013243,0.0,0 STARLINK-4589,1 53746U 22107AY  23265.55309983  .00013243  00000-0  84807-3 0  9990,2 53746  53.2176 340.5504 0001498  74.6660 285.4498 15.08861057 58850,6917.816,95.436,540.717,538.645,0.0
53746.0,STARLINK-4589,PAYLOAD,2023-09-23 09:56:28,15.08849673,0.0001574,53.218,336.6836,77.7167,282.4001,0.00019804,2.866e-05,0.0,0 STARLINK-4589,1 53746U 22107AY  23266.41421905  .00002866  00000-0  19804-3 0  9999,2 53746  53.2180 336.6836 0001574  77.7167 282.4001 15.08849673 58206,6917.851,95.437,540.805,538.627,0.0
53746.0,STARLINK-4589,PAYLOAD,2023-09-24 09:47:15,15.08841767,0.0001441,53.2178,332.225,80.9891,279.1264,0.00010005,1.305e-05,0.0,0 STARLINK-4589,1 53746U 22107AY  23267.40782123  .00001305  00000-0  10005-3 0  9992,2 53746  53.2178 332.2250 0001441  80.9891 279.1264 15.08841767 58354,6917.875,95.437,540.737,538.743,0.0
53746.0,STARLINK-4589,PAYLOAD,2023-09-24 11:22:38,15.0884579,0.0001503,53.2182,331.9274,85.199,274.9174,8.1216e-05,1.005e-05,0.0,0 STARLINK-4589,1 53746U 22107AY  23267.47405900  .00001005  00000-0  81216-4 0  9994,2 53746  53.2182 331.9274 0001503  85.1990 274.9174 15.08845790 59148,6917.863,95.437,540.767,538.688,0.0
53746.0,STARLINK-4589,PAYLOAD,2023-09-24 14:33:24,15.08850323,0.0001497,53.2182,331.3332,88.5703,271.546,0.00018872,2.718e-05,0.0,0 STARLINK-4589,1 53746U 22107AY  23267.60653629  .00002718  00000-0  18872-3 0  9991,2 53746  53.2182 331.3332 0001497  88.5703 271.5460 15.08850323 58382,6917.849,95.437,540.749,538.678,0.0
53746.0,STARLINK-4589,PAYLOAD,2023-09-25 11:13:25,15.08853001,0.0001519,53.2184,327.4694,95.8864,264.2301,0.00031954,4.803e-05,0.0,0 STARLINK-4589,1 53746U 22107AY  23268.46765616  .00004803  00000-0  31954-3 0  9999,2 53746  53.2184 327.4694 0001519  95.8864 264.2301 15.08853001 58519,6917.841,95.437,540.756,538.655,0.0
53746.0,STARLINK-4589,PAYLOAD,2023-09-25 12:48:48,15.08856454,0.0001503,53.2175,327.1701,90.245,269.8714,0.00038845,5.902e-05,0.0,0 STARLINK-4589,1 53746U 22107AY  23268.53389493  .00005902  00000-0  38845-3 0  9999,2 53746  53.2175 327.1701 0001503  90.2450 269.8714 15.08856454 59300,6917.83,95.437,540.735,538.655,0.0
53746.0,STARLINK-4589,PAYLOAD,2023-09-25 23:56:30,15.08841877,0.0001449,53.2181,325.0882,101.2673,258.8482,7.6425e-05,9.29e-06,0.0,0 STARLINK-4589,1 53746U 22107AY  23268.99757910  .00000929  00000-0  76425-4 0  9993,2 53746  53.2181 325.0882 0001449 101.2673 258.8482 15.08841877 58596,6917.875,95.437,540.742,538.737,0.0
53746.0,STARLINK-4589,PAYLOAD,2023-09-26 09:28:50,15.08827679,0.0001524,53.2175,323.3037,98.5977,261.5188,-0.00018497,-3.23e-05,0.0,0 STARLINK-4589,1 53746U 22107AY  23269.39502534 -.00003230  00000-0 -18497-3 0  9992,2 53746  53.2175 323.3037 0001524  98.5977 261.5188 15.08827679 58656,6917.918,95.438,540.837,538.729,0.0
53746.0,STARLINK-4589,PAYLOAD,2023-09-26 12:39:36,15.08833211,0.0001407,53.2177,322.7094,98.6566,261.4586,-5.4512e-05,-1.155e-05,0.0,0 STARLINK-4589,1 53746U 22107AY  23269.52750473 -.00001155  00000-0 -54512-4 0  9997,2 53746  53.2177 322.7094 0001407  98.6566 261.4586 15.08833211 59458,6917.901,95.438,540.739,538.793,0.0
53746.0,STARLINK-4589,PAYLOAD,2023-09-27 09:19:37,15.08843184,0.0001412,53.2167,318.8451,78.5153,281.5998,0.00018592,2.672e-05,0.0,0 STARLINK-4589,1 53746U 22107AY  23270.38862521  .00002672  00000-0  18592-3 0  9991,2 53746  53.2167 318.8451 0001412  78.5153 281.5998 15.08843184 58803,6917.871,95.437,540.712,538.759,0.0
53746.0,STARLINK-4589,PAYLOAD,2023-09-27 12:30:23,15.08847336,0.0001549,53.2163,318.2483,83.2113,276.9055,0.0003876,5.887e-05,0.0,0 STARLINK-4589,1 53746U 22107AY  23270.52110473  .00005887  00000-0  38760-3 0  9999,2 53746  53.2163 318.2483 0001549  83.2113 276.9055 15.08847336 59602,6917.858,95.437,540.795,538.651,0.0
53746.0,STARLINK-4589,PAYLOAD,2023-09-28 10:45:47,15.08838979,0.0001776,53.2171,314.0859,80.8473,279.272,0.00017332,2.471e-05,0.0,0 STARLINK-4589,1 53746U 22107AY  23271.44847205  .00002471  00000-0  17332-3 0  9999,2 53746  53.2171 314.0859 0001776  80.8473 279.2720 15.08838979 58962,6917.884,95.438,540.977,538.52,0.0
53746.0,STARLINK-4589,PAYLOAD,2023-09-28 12:21:10,15.088404,0.0001631,53.2176,313.7854,82.0288,278.0889,0.00018155,2.603e-05,0.0,0 STARLINK-4589,1 53746U 22107AY  23271.51471054  .00002603  00000-0  18155-3 0  9993,2 53746  53.2176 313.7854 0001631  82.0288 278.0889 15.08840400 59759,6917.879,95.438,540.872,538.616,0.0
53746.0,STARLINK-4589,PAYLOAD,2023-09-29 12:11:58,15.0884675,0.0001716,53.2176,309.3234,88.4947,271.6242,0.00024657,3.639e-05,0.0,0 STARLINK-4589,1 53746U 22107AY  23272.50831071  .00003639  00000-0  24657-3 0  9996,2 53746  53.2176 309.3234 0001716  88.4947 271.6242 15.08846750 59901,6917.86,95.437,540.912,538.538,0.0
53746.0,STARLINK-4589,PAYLOAD,2023-09-30 05:41:12,15.08854504,0.0001562,53.216,306.053,101.0584,259.0583,0.00037633,5.709e-05,0.0,0 STARLINK-4589,1 53746U 22107AY  23273.23694458  .00005709  00000-0  37633-3 0  9991,2 53746  53.2160 306.0530 0001562 101.0584 259.0583 15.08854504 60013,6917.836,95.437,540.782,538.62,0.0
53746.0,STARLINK-4589,PAYLOAD,2023-10-01 02:21:12,15.08840659,0.0001515,53.2154,302.1903,70.866,289.2496,-0.00012157,-2.222e-05,0.0,0 STARLINK-4589,1 53746U 22107AY  23274.09806497 -.00002222  00000-0 -12157-3 0  9997,2 53746  53.2154 302.1903 0001515  70.8660 289.2496 15.08840659 59363,6917.878,95.438,540.791,538.695,0.0
53746.0,STARLINK-4589,PAYLOAD,2023-10-01 08:42:45,15.08845592,0.0001613,53.2157,301.0009,94.6049,265.5127,2.2561e-05,7.1e-07,0.0,0 STARLINK-4589,1 53746U 22107AY  23274.36302298  .00000071  00000-0  22561-4 0  9996,2 53746  53.2157 301.0009 0001613  94.6049 265.5127 15.08845592 60186,6917.863,95.437,540.844,538.612,0.0
53746.0,STARLINK-4589,PAYLOAD,2023-10-02 08:33:33,15.08835713,0.0001682,53.2159,296.5408,96.2763,263.8421,-5.7794e-05,-1.208e-05,0.0,0 STARLINK-4589,1 53746U 22107AY  23275.35663232 -.00001208  00000-0 -57794-4 0  9995,2 53746  53.2159 296.5408 0001682  96.2763 263.8421 15.08835713 59557,6917.893,95.438,540.922,538.595,0.0
53746.0,STARLINK-4589,PAYLOAD,2023-10-02 10:08:56,15.08835825,0.0001612,53.2163,296.2438,94.0848,266.0329,-4.9288e-05,-1.072e-05,0.0,0 STARLINK-4589,1 53746U 22107AY  23275.42287196 -.00001072  00000-0 -49288-4 0  9992,2 53746  53.2163 296.2438 0001612  94.0848 266.0329 15.08835825 60340,6917.893,95.438,540.873,538.643,0.0
53746.0,STARLINK-4589,PAYLOAD,2023-10-03 09:59:43,15.08844177,0.0001633,53.2159,291.7828,98.0141,262.1037,0.00034619,5.227e-05,0.0,0 STARLINK-4589,1 53746U 22107AY  23276.41647404  .00005227  00000-0  34619-3 0  9999,2 53746  53.2159 291.7828 0001633  98.0141 262.1037 15.08844177 59713,6917.868,95.437,540.862,538.603,0.0
53746.0,STARLINK-4589,PAYLOAD,2023-10-04 09:50:30,15.08844881,0.0001765,53.216,287.3195,105.4347,254.6841,0.0002393,3.523e-05,0.0,0 STARLINK-4589,1 53746U 22107AY  23277.41007386  .00003523  00000-0  23930-3 0  9990,2 53746  53.2160 287.3195 0001765 105.4347 254.6841 15.08844881 59867,6917.865,95.437,540.951,538.509,0.0
53746.0,STARLINK-4589,PAYLOAD,2023-10-05 08:05:54,15.08846773,0.0001681,53.2163,283.1571,103.3536,256.7644,0.00013479,1.858e-05,0.0,0 STARLINK-4589,1 53746U 22107AY  23278.33743331  .00001858  00000-0  13479-3 0  9995,2 53746  53.2163 283.1571 0001681 103.3536 256.7644 15.08846773 60000,6917.86,95.437,540.888,538.562,0.0
53746.0,STARLINK-4589,PAYLOAD,2023-10-05 17:38:13,15.08844344,0.0001664,53.2159,281.3745,85.6792,274.439,5.5263e-05,5.92e-06,0.0,0 STARLINK-4589,1 53746U 22107AY  23278.73487433  .00000592  00000-0  55263-4 0  9999,2 53746  53.2159 281.3745 0001664  85.6792 274.4390 15.08844344 60844,6917.867,95.437,540.883,538.581,0.0
53746.0,STARLINK-4589,PAYLOAD,2023-10-06 01:35:09,15.08841274,0.0001723,53.2167,279.8871,88.6582,271.4607,-4.8126e-05,-1.054e-05,0.0,0 STARLINK-4589,1 53746U 22107AY  23279.06607774 -.00001054  00000-0 -48126-4 0  9994,2 53746  53.2167 279.8871 0001723  88.6582 271.4607 15.08841274 60118,6917.876,95.437,540.933,538.55,0.0
53746.0,STARLINK-4589,PAYLOAD,2023-10-06 06:21:18,15.08843556,0.0001677,53.2165,278.9948,89.0146,271.1038,2.6501e-06,-2.46e-06,0.0,0 STARLINK-4589,1 53746U 22107AY  23279.26479675 -.00000246  00000-0  26501-5 0  9998,2 53746  53.2165 278.9948 0001677  89.0146 271.1038 15.08843556 60929,6917.87,95.437,540.895,538.574,0.0
